start=new Date('2022-05-16T00:00:00.000Z').valueOf();
sats=[{"MEAN_MOTION":"15.06403956","RCS_SIZE":"LARGE","DECAY_DATE":null,"MEAN_MOTION_DOT":"0.00003276","OBJECT_TYPE":"PAYLOAD","PERIAPSIS":"546.154","ECCENTRICITY":"0.00015130","MEAN_MOTION_DDOT":"0.0000000000000","OBJECT_ID":"2021-027AJ","SEMIMAJOR_AXIS":"6925.336","INCLINATION":"53.0539","COUNTRY_CODE":"US","REF_FRAME":"TEME","ELEMENT_SET_NO":"999","CENTER_NAME":"EARTH","CLASSIFICATION_TYPE":"U","BSTAR":"0.00023867000000","ARG_OF_PERICENTER":"67.9490","RA_OF_ASC_NODE":"298.8895","SITE":"AFETR","EPOCH":"2022-05-15T20:01:22.290528","TLE_LINE1":"1 48124U 21027AJ  22135.83428577  .00003276  00000-0  23867-3 0  9995","OBJECT_NAME":"STARLINK-2465","FILE":"3447521","PERIOD":"95.592","LAUNCH_DATE":"2021-04-07","TIME_SYSTEM":"UTC","REV_AT_EPOCH":"6246","MEAN_ANOMALY":"292.1659","TLE_LINE2":"2 48124  53.0539 298.8895 0001513  67.9490 292.1659 15.06403956 62461","GP_ID":"203649217","APOAPSIS":"548.249","MEAN_ELEMENT_THEORY":"SGP4","NORAD_CAT_ID":"48124","EPHEMERIS_TYPE":"0"},{"APOAPSIS":"548.161","GP_ID":"203649466","TLE_LINE2":"2 48125  53.0549 309.2226 0001356  85.3393 274.7751 15.06397224 62323","EPHEMERIS_TYPE":"0","NORAD_CAT_ID":"48125","MEAN_ELEMENT_THEORY":"SGP4","TIME_SYSTEM":"UTC","LAUNCH_DATE":"2021-04-07","FILE":"3447521","OBJECT_NAME":"STARLINK-2466","TLE_LINE1":"1 48125U 21027AK  22135.75869580  .00000658  00000-0  63091-4 0  9995","PERIOD":"95.592","MEAN_ANOMALY":"274.7751","REV_AT_EPOCH":"6232","REF_FRAME":"TEME","COUNTRY_CODE":"US","CENTER_NAME":"EARTH","CLASSIFICATION_TYPE":"U","BSTAR":"0.00006309100000","ELEMENT_SET_NO":"999","EPOCH":"2022-05-15T18:12:31.317120","ARG_OF_PERICENTER":"85.3393","SITE":"AFETR","RA_OF_ASC_NODE":"309.2226","DECAY_DATE":null,"MEAN_MOTION":"15.06397224","RCS_SIZE":"LARGE","MEAN_MOTION_DDOT":"0.0000000000000","OBJECT_ID":"2021-027AK","ECCENTRICITY":"0.00013560","INCLINATION":"53.0549","SEMIMAJOR_AXIS":"6925.357","OBJECT_TYPE":"PAYLOAD","MEAN_MOTION_DOT":"0.00000658","PERIAPSIS":"546.283"},{"OBJECT_TYPE":"PAYLOAD","PERIAPSIS":"546.198","MEAN_MOTION_DOT":"0.00001743","INCLINATION":"53.0543","SEMIMAJOR_AXIS":"6925.349","MEAN_MOTION_DDOT":"0.0000000000000","OBJECT_ID":"2021-027AL","ECCENTRICITY":"0.00014680","MEAN_MOTION":"15.06399802","RCS_SIZE":"LARGE","DECAY_DATE":null,"SITE":"AFETR","RA_OF_ASC_NODE":"288.7172","ARG_OF_PERICENTER":"76.0631","EPOCH":"2022-05-15T20:50:27.788352","BSTAR":"0.00013591000000","CLASSIFICATION_TYPE":"U","CENTER_NAME":"EARTH","ELEMENT_SET_NO":"999","COUNTRY_CODE":"US","REF_FRAME":"TEME","REV_AT_EPOCH":"6262","MEAN_ANOMALY":"284.0521","PERIOD":"95.592","FILE":"3447521","OBJECT_NAME":"STARLINK-2467","TLE_LINE1":"1 48126U 21027AL  22135.86837718  .00001743  00000-0  13591-3 0  9991","TIME_SYSTEM":"UTC","LAUNCH_DATE":"2021-04-07","NORAD_CAT_ID":"48126","MEAN_ELEMENT_THEORY":"SGP4","EPHEMERIS_TYPE":"0","GP_ID":"203650212","TLE_LINE2":"2 48126  53.0543 288.7172 0001468  76.0631 284.0521 15.06399802 62621","APOAPSIS":"548.231"},{"ARG_OF_PERICENTER":"57.6458","RA_OF_ASC_NODE":"308.7752","SITE":"AFETR","EPOCH":"2022-05-15T20:37:11.730720","REF_FRAME":"TEME","COUNTRY_CODE":"US","ELEMENT_SET_NO":"999","CLASSIFICATION_TYPE":"U","BSTAR":"0.00015457000000","CENTER_NAME":"EARTH","OBJECT_TYPE":"PAYLOAD","PERIAPSIS":"546.017","MEAN_MOTION_DOT":"0.00002021","ECCENTRICITY":"0.00017270","MEAN_MOTION_DDOT":"0.0000000000000","OBJECT_ID":"2021-027AM","SEMIMAJOR_AXIS":"6925.348","INCLINATION":"53.0558","MEAN_MOTION":"15.06400311","RCS_SIZE":"LARGE","DECAY_DATE":null,"NORAD_CAT_ID":"48127","MEAN_ELEMENT_THEORY":"SGP4","EPHEMERIS_TYPE":"0","TLE_LINE2":"2 48127  53.0558 308.7752 0001727  57.6458 302.4698 15.06400311 62331","GP_ID":"203648467","APOAPSIS":"548.409","REV_AT_EPOCH":"6233","MEAN_ANOMALY":"302.4698","TLE_LINE1":"1 48127U 21027AM  22135.85916355  .00002021  00000-0  15457-3 0  9999","FILE":"3447521","OBJECT_NAME":"STARLINK-2468","PERIOD":"95.592","LAUNCH_DATE":"2021-04-07","TIME_SYSTEM":"UTC"},{"DECAY_DATE":null,"MEAN_MOTION":"15.06397129","RCS_SIZE":"LARGE","SEMIMAJOR_AXIS":"6925.357","INCLINATION":"53.0560","OBJECT_ID":"2021-027AN","MEAN_MOTION_DDOT":"0.0000000000000","ECCENTRICITY":"0.00014050","MEAN_MOTION_DOT":"0.00000949","OBJECT_TYPE":"PAYLOAD","PERIAPSIS":"546.249","BSTAR":"0.00008257000000","CLASSIFICATION_TYPE":"U","CENTER_NAME":"EARTH","ELEMENT_SET_NO":"999","COUNTRY_CODE":"US","REF_FRAME":"TEME","EPOCH":"2022-05-15T13:35:11.944608","RA_OF_ASC_NODE":"240.0962","SITE":"AFETR","ARG_OF_PERICENTER":"77.3659","TIME_SYSTEM":"UTC","LAUNCH_DATE":"2021-04-07","PERIOD":"95.592","OBJECT_NAME":"STARLINK-2469","FILE":"3447236","TLE_LINE1":"1 48128U 21027AN  22135.56611047  .00000949  00000-0  82570-4 0  9996","MEAN_ANOMALY":"282.7487","REV_AT_EPOCH":"6287","APOAPSIS":"548.195","GP_ID":"203620833","TLE_LINE2":"2 48128  53.0560 240.0962 0001405  77.3659 282.7487 15.06397129 62878","EPHEMERIS_TYPE":"0","MEAN_ELEMENT_THEORY":"SGP4","NORAD_CAT_ID":"48128"},{"APOAPSIS":"548.022","TLE_LINE2":"2 48129  53.0551 309.4020 0001162  69.5694 290.5419 15.06398918 62314","GP_ID":"203649967","EPHEMERIS_TYPE":"0","NORAD_CAT_ID":"48129","MEAN_ELEMENT_THEORY":"SGP4","LAUNCH_DATE":"2021-04-07","TIME_SYSTEM":"UTC","TLE_LINE1":"1 48129U 21027AP  22135.71909864  .00001806  00000-0  14007-3 0  9993","OBJECT_NAME":"STARLINK-2471","FILE":"3447521","PERIOD":"95.592","MEAN_ANOMALY":"290.5419","REV_AT_EPOCH":"6231","COUNTRY_CODE":"US","REF_FRAME":"TEME","ELEMENT_SET_NO":"999","CLASSIFICATION_TYPE":"U","CENTER_NAME":"EARTH","BSTAR":"0.00014007000000","EPOCH":"2022-05-15T17:15:30.122496","ARG_OF_PERICENTER":"69.5694","SITE":"AFETR","RA_OF_ASC_NODE":"309.4020","DECAY_DATE":null,"MEAN_MOTION":"15.06398918","RCS_SIZE":"LARGE","ECCENTRICITY":"0.00011620","OBJECT_ID":"2021-027AP","MEAN_MOTION_DDOT":"0.0000000000000","INCLINATION":"53.0551","SEMIMAJOR_AXIS":"6925.352","OBJECT_TYPE":"PAYLOAD","PERIAPSIS":"546.412","MEAN_MOTION_DOT":"0.00001806"},{"MEAN_ANOMALY":"280.0525","REV_AT_EPOCH":"6226","TIME_SYSTEM":"UTC","LAUNCH_DATE":"2021-04-07","PERIOD":"95.592","OBJECT_NAME":"STARLINK-2472","FILE":"3447521","TLE_LINE1":"1 48130U 21027AQ  22135.84117513  .00004357  00000-0  31122-3 0  9992","EPHEMERIS_TYPE":"0","NORAD_CAT_ID":"48130","MEAN_ELEMENT_THEORY":"SGP4","APOAPSIS":"548.220","GP_ID":"203649712","TLE_LINE2":"2 48130  53.0548 313.8507 0001463  80.0629 280.0525 15.06402234 62264","INCLINATION":"53.0548","SEMIMAJOR_AXIS":"6925.342","MEAN_MOTION_DDOT":"0.0000000000000","OBJECT_ID":"2021-027AQ","ECCENTRICITY":"0.00014630","MEAN_MOTION_DOT":"0.00004357","OBJECT_TYPE":"PAYLOAD","PERIAPSIS":"546.194","DECAY_DATE":null,"RCS_SIZE":"LARGE","MEAN_MOTION":"15.06402234","EPOCH":"2022-05-15T20:11:17.531232","SITE":"AFETR","RA_OF_ASC_NODE":"313.8507","ARG_OF_PERICENTER":"80.0629","CLASSIFICATION_TYPE":"U","BSTAR":"0.00031122000000","CENTER_NAME":"EARTH","ELEMENT_SET_NO":"999","COUNTRY_CODE":"US","REF_FRAME":"TEME"},{"EPHEMERIS_TYPE":"0","NORAD_CAT_ID":"48131","MEAN_ELEMENT_THEORY":"SGP4","APOAPSIS":"548.181","TLE_LINE2":"2 48131  53.0541 288.7525 0001382  82.3829 277.7317 15.06396478 62618","GP_ID":"203648968","MEAN_ANOMALY":"277.7317","REV_AT_EPOCH":"6261","LAUNCH_DATE":"2021-04-07","TIME_SYSTEM":"UTC","TLE_LINE1":"1 48131U 21027AR  22135.86100590  .00001132  00000-0  94869-4 0  9998","FILE":"3447521","OBJECT_NAME":"STARLINK-2473","PERIOD":"95.592","EPOCH":"2022-05-15T20:39:50.909760","ARG_OF_PERICENTER":"82.3829","SITE":"AFETR","RA_OF_ASC_NODE":"288.7525","REF_FRAME":"TEME","COUNTRY_CODE":"US","ELEMENT_SET_NO":"999","CENTER_NAME":"EARTH","CLASSIFICATION_TYPE":"U","BSTAR":"0.00009486900000","ECCENTRICITY":"0.00013820","MEAN_MOTION_DDOT":"0.0000000000000","OBJECT_ID":"2021-027AR","SEMIMAJOR_AXIS":"6925.359","INCLINATION":"53.0541","PERIAPSIS":"546.267","OBJECT_TYPE":"PAYLOAD","MEAN_MOTION_DOT":"0.00001132","DECAY_DATE":null,"RCS_SIZE":"LARGE","MEAN_MOTION":"15.06396478"},{"NORAD_CAT_ID":"48132","MEAN_ELEMENT_THEORY":"SGP4","EPHEMERIS_TYPE":"0","TLE_LINE2":"2 48132  53.0556 308.8607 0001440  80.3457 279.7695 15.06402545 62322","GP_ID":"203649218","APOAPSIS":"548.203","REV_AT_EPOCH":"6232","MEAN_ANOMALY":"279.7695","TLE_LINE1":"1 48132U 21027AS  22135.84073122  .00000938  00000-0  81864-4 0  9991","FILE":"3447521","OBJECT_NAME":"STARLINK-2474","PERIOD":"95.592","LAUNCH_DATE":"2021-04-07","TIME_SYSTEM":"UTC","ARG_OF_PERICENTER":"80.3457","RA_OF_ASC_NODE":"308.8607","SITE":"AFETR","EPOCH":"2022-05-15T20:10:39.177408","REF_FRAME":"TEME","COUNTRY_CODE":"US","ELEMENT_SET_NO":"999","CENTER_NAME":"EARTH","BSTAR":"0.00008186400000","CLASSIFICATION_TYPE":"U","PERIAPSIS":"546.209","OBJECT_TYPE":"PAYLOAD","MEAN_MOTION_DOT":"0.00000938","ECCENTRICITY":"0.00014400","MEAN_MOTION_DDOT":"0.0000000000000","OBJECT_ID":"2021-027AS","SEMIMAJOR_AXIS":"6925.341","INCLINATION":"53.0556","MEAN_MOTION":"15.06402545","RCS_SIZE":"LARGE","DECAY_DATE":null},{"PERIOD":"95.592","TLE_LINE1":"1 48133U 21027AT  22135.83704841  .00001398  00000-0  11274-3 0  9998","OBJECT_NAME":"STARLINK-2475","FILE":"3447521","LAUNCH_DATE":"2021-04-07","TIME_SYSTEM":"UTC","REV_AT_EPOCH":"6233","MEAN_ANOMALY":"287.4172","TLE_LINE2":"2 48133  53.0547 308.8772 0001358  72.6965 287.4172 15.06400418 62336","GP_ID":"203649467","APOAPSIS":"548.153","NORAD_CAT_ID":"48133","MEAN_ELEMENT_THEORY":"SGP4","EPHEMERIS_TYPE":"0","MEAN_MOTION":"15.06400418","RCS_SIZE":"LARGE","DECAY_DATE":null,"MEAN_MOTION_DOT":"0.00001398","OBJECT_TYPE":"PAYLOAD","PERIAPSIS":"546.272","SEMIMAJOR_AXIS":"6925.347","INCLINATION":"53.0547","ECCENTRICITY":"0.00013580","MEAN_MOTION_DDOT":"0.0000000000000","OBJECT_ID":"2021-027AT","ELEMENT_SET_NO":"999","CLASSIFICATION_TYPE":"U","CENTER_NAME":"EARTH","BSTAR":"0.00011274000000","COUNTRY_CODE":"US","REF_FRAME":"TEME","RA_OF_ASC_NODE":"308.8772","SITE":"AFETR","ARG_OF_PERICENTER":"72.6965","EPOCH":"2022-05-15T20:05:20.982624"}];
